{"type":"FeatureCollection","features":[{"type":"Feature","id":"13","properties":{"name":"Georgia","density":169.5},"geometry":{"type":"Polygon","coordinates":[[[-83.109191,35.00118],[-83.322791,34.787579],[-83.339222,34.683517],[-83.005129,34.469916],[-82.901067,34.486347],[-82.747713,34.26727],[-82.714851,34.152254],[-82.55602,33.94413],[-82.325988,33.81816],[-82.194542,33.631944],[-81.926172,33.462159],[-81.937125,33.347144],[-81.761863,33.160928],[-81.493493,33.007573],[-81.42777,32.843265],[-81.416816,32.629664],[-81.279893,32.558464],[-81.121061,32.290094],[-81.115584,32.120309],[-80.885553,32.032678],[-81.132015,31.693108],[-81.175831,31.517845],[-81.279893,31.364491],[-81.290846,31.20566],[-81.400385,31.13446],[-81.444201,30.707258],[-81.718048,30.745597],[-81.948079,30.827751],[-82.041187,30.751074],[-82.002849,30.564858],[-82.046664,30.362211],[-82.167157,30.356734],[-82.216449,30.570335],[-83.498053,30.647012],[-84.867289,30.712735],[-85.004212,31.003013],[-85.113751,31.27686],[-85.042551,31.539753],[-85.141136,31.840985],[-85.053504,32.01077],[-85.058981,32.13674],[-84.889196,32.262709],[-85.004212,32.322956],[-84.960397,32.421541],[-85.069935,32.580372],[-85.184951,32.859696],[-85.431413,34.124869],[-85.606675,34.984749],[-84.319594,34.990226],[-83.618546,34.984749],[-83.109191,35.00118]]]}},{"type":"Feature","id":"36","properties":{"name":"New York","density":412.3},"geometry":{"type":"Polygon","coordinates":[[[-73.343806,45.013027],[-73.332852,44.804903],[-73.387622,44.618687],[-73.294514,44.437948],[-73.321898,44.246255],[-73.436914,44.043608],[-73.349283,43.769761],[-73.404052,43.687607],[-73.245221,43.523299],[-73.278083,42.833204],[-73.267129,42.745573],[-73.508114,42.08834],[-73.486206,42.050002],[-73.55193,41.294184],[-73.48073,41.21203],[-73.727192,41.102491],[-73.655992,40.987475],[-73.22879,40.905321],[-73.141159,40.965568],[-72.774204,40.965568],[-72.587988,40.998429],[-72.28128,41.157261],[-72.259372,41.042245],[-72.100541,40.992952],[-72.467496,40.845075],[-73.239744,40.625997],[-73.562884,40.582182],[-73.776484,40.593136],[-73.935316,40.543843],[-74.022947,40.708151],[-73.902454,40.998429],[-74.236547,41.14083],[-74.69661,41.359907],[-74.740426,41.431108],[-74.89378,41.436584],[-75.074519,41.60637],[-75.052611,41.754247],[-75.173104,41.869263],[-75.249781,41.863786],[-75.35932,42.000709],[-79.76278,42.000709],[-79.76278,42.252649],[-79.76278,42.269079],[-79.149363,42.55388],[-79.050778,42.690804],[-78.853608,42.783912],[-78.930285,42.953697],[-79.012439,42.986559],[-79.072686,43.260406],[-78.486653,43.375421],[-77.966344,43.369944],[-77.75822,43.34256],[-77.533665,43.233021],[-77.391265,43.276836],[-76.958587,43.271359],[-76.695693,43.34256],[-76.41637,43.523299],[-76.235631,43.528776],[-76.230154,43.802623],[-76.137046,43.961454],[-76.3616,44.070993],[-76.312308,44.196962],[-75.912491,44.366748],[-75.764614,44.514625],[-75.282643,44.848718],[-74.828057,45.018503],[-74.148916,44.991119],[-73.343806,45.013027]]]}},{"type":"Feature","id":"37","properties":{"name":"North Carolina","density":198.2},"geometry":{"type":"Polygon","coordinates":[[[-80.978661,36.562108],[-80.294043,36.545677],[-79.510841,36.5402],[-75.868676,36.551154],[-75.75366,36.151337],[-76.032984,36.189676],[-76.071322,36.140383],[-76.410893,36.080137],[-76.460185,36.025367],[-76.68474,36.008937],[-76.673786,35.937736],[-76.399939,35.987029],[-76.3616,35.943213],[-76.060368,35.992506],[-75.961783,35.899398],[-75.781044,35.937736],[-75.715321,35.696751],[-75.775568,35.581735],[-75.89606,35.570781],[-76.147999,35.324319],[-76.482093,35.313365],[-76.536862,35.14358],[-76.394462,34.973795],[-76.279446,34.940933],[-76.493047,34.661609],[-76.673786,34.694471],[-76.991448,34.667086],[-77.210526,34.60684],[-77.555573,34.415147],[-77.82942,34.163208],[-77.971821,33.845545],[-78.179944,33.916745],[-78.541422,33.851022],[-79.675149,34.80401],[-80.797922,34.820441],[-80.781491,34.935456],[-80.934845,35.105241],[-81.038907,35.044995],[-81.044384,35.149057],[-82.276696,35.198349],[-82.550543,35.160011],[-82.764143,35.066903],[-83.109191,35.00118],[-83.618546,34.984749],[-84.319594,34.990226],[-84.29221,35.225734],[-84.09504,35.247642],[-84.018363,35.41195],[-83.7719,35.559827],[-83.498053,35.565304],[-83.251591,35.718659],[-82.994175,35.773428],[-82.775097,35.997983],[-82.638174,36.063706],[-82.610789,35.965121],[-82.216449,36.156814],[-82.03571,36.118475],[-81.909741,36.304691],[-81.723525,36.353984],[-81.679709,36.589492],[-80.978661,36.562108]]]}},{"type":"Feature","id":"47","properties":{"name":"Tennessee","density":88.08},"geometry":{"type":"Polygon","coordinates":[[[-88.054868,36.496384],[-88.071299,36.677123],[-87.852221,36.633308],[-86.592525,36.655216],[-85.486183,36.616877],[-85.289013,36.627831],[-84.544149,36.594969],[-83.689746,36.584015],[-83.673316,36.600446],[-81.679709,36.589492],[-81.723525,36.353984],[-81.909741,36.304691],[-82.03571,36.118475],[-82.216449,36.156814],[-82.610789,35.965121],[-82.638174,36.063706],[-82.775097,35.997983],[-82.994175,35.773428],[-83.251591,35.718659],[-83.498053,35.565304],[-83.7719,35.559827],[-84.018363,35.41195],[-84.09504,35.247642],[-84.29221,35.225734],[-84.319594,34.990226],[-85.606675,34.984749],[-87.359296,35.00118],[-88.202745,34.995703],[-88.471115,34.995703],[-90.311367,34.995703],[-90.212782,35.023087],[-90.114197,35.198349],[-90.130628,35.439335],[-89.944412,35.603643],[-89.911551,35.756997],[-89.763673,35.811767],[-89.730812,35.997983],[-89.533642,36.249922],[-89.539119,36.496384],[-89.484349,36.496384],[-89.418626,36.496384],[-89.298133,36.507338],[-88.054868,36.496384]]]}}]}